{"fetched_at":"2026-03-29T02:12:04Z","count":15717,"tles":[{"name":"SHIYAN-21 (SY-21)","line1":"1 54752U 22172A   26087.35431590  .00010708  00000+0  38921-3 0  9991","line2":"2 54752  35.9758 217.8110 0021885 257.4958 102.3327 15.27376816183316","category":"Other"}]}